{
  "type": "FeatureCollection",
  "features": [
    {
      "type": "Feature",
      "properties": {
        "norad_id": 44333,
        "name": "AT&T T-16",
        "group": "intelsat",
        "lat": 0.029321348431776518,
        "lon": 111.25904666315408,
        "alt_km": 35784.92857703227,
        "timestamp": "2025-12-08T08:59:00.440071+00:00",
        "meta_object_name": "AT&T T-16",
        "meta_object_id": "2019-034A",
        "meta_epoch": "2025-12-07T21:42:57.079584",
        "meta_mean_motion": 1.00269342,
        "meta_eccentricity": 8.748e-05,
        "meta_inclination": 0.0249,
        "meta_ra_of_asc_node": 62.1776,
        "meta_arg_of_pericenter": 108.8595,
        "meta_mean_anomaly": 130.7631,
        "meta_ephemeris_type": 0,
        "meta_classification_type": "U",
        "meta_norad_cat_id": 44333,
        "meta_element_set_no": 999,
        "meta_rev_at_epoch": 2371,
        "meta_bstar": 0,
        "meta_mean_motion_dot": -1.12e-06,
        "meta_mean_motion_ddot": 0,
        "tle_line1": "1 44333U 19034A   25341.90482731 -.00000112  00000+0  00000+0 0  9996",
        "tle_line2": "2 44333   0.0249  62.1776 0000874 108.8595 130.7631  1.00269342 23719"
      },
      "geometry": {
        "type": "Point",
        "coordinates": [
          111.25904666315408,
          0.029321348431776518
        ]
      }
    },
    {
      "type": "Feature",
      "properties": {
        "norad_id": 44476,
        "name": "INTELSAT 39 (IS-39)",
        "group": "intelsat",
        "lat": -0.03165854491488577,
        "lon": -85.91680588082038,
        "alt_km": 35788.25144609632,
        "timestamp": "2025-12-08T08:59:00.440083+00:00",
        "meta_object_name": "INTELSAT 39 (IS-39)",
        "meta_object_id": "2019-049B",
        "meta_epoch": "2025-12-07T22:49:38.694720",
        "meta_mean_motion": 1.00269946,
        "meta_eccentricity": 8.524e-05,
        "meta_inclination": 0.017,
        "meta_ra_of_asc_node": 323.2654,
        "meta_arg_of_pericenter": 192.9818,
        "meta_mean_anomaly": 325.0777,
        "meta_ephemeris_type": 0,
        "meta_classification_type": "U",
        "meta_norad_cat_id": 44476,
        "meta_element_set_no": 999,
        "meta_rev_at_epoch": 2321,
        "meta_bstar": 0,
        "meta_mean_motion_dot": 3.7e-07,
        "meta_mean_motion_ddot": 0,
        "tle_line1": "1 44476U 19049B   25341.95114230  .00000037  00000+0  00000+0 0  9996",
        "tle_line2": "2 44476   0.0170 323.2654 0000852 192.9818 325.0777  1.00269946 23219"
      },
      "geometry": {
        "type": "Point",
        "coordinates": [
          -85.91680588082038,
          -0.03165854491488577
        ]
      }
    },
    {
      "type": "Feature",
      "properties": {
        "norad_id": 46114,
        "name": "GALAXY 30 (G-30)",
        "group": "intelsat",
        "lat": 0.038339763774897236,
        "lon": 87.118534170092,
        "alt_km": 35796.467790870855,
        "timestamp": "2025-12-08T08:59:00.440095+00:00",
        "meta_object_name": "GALAXY 30 (G-30)",
        "meta_object_id": "2020-056C",
        "meta_epoch": "2025-12-07T16:27:51.213024",
        "meta_mean_motion": 1.00270815,
        "meta_eccentricity": 0.00024466,
        "meta_inclination": 0.0172,
        "meta_ra_of_asc_node": 342.6462,
        "meta_arg_of_pericenter": 273.2329,
        "meta_mean_anomaly": 302.7854,
        "meta_ephemeris_type": 0,
        "meta_classification_type": "U",
        "meta_norad_cat_id": 46114,
        "meta_element_set_no": 999,
        "meta_rev_at_epoch": 1937,
        "meta_bstar": 0,
        "meta_mean_motion_dot": 4e-07,
        "meta_mean_motion_ddot": 0,
        "tle_line1": "1 46114U 20056C   25341.68600941  .00000040  00000+0  00000+0 0  9990",
        "tle_line2": "2 46114   0.0172 342.6462 0002446 273.2329 302.7854  1.00270815 19372"
      },
      "geometry": {
        "type": "Point",
        "coordinates": [
          87.118534170092,
          0.038339763774897236
        ]
      }
    },
    {
      "type": "Feature",
      "properties": {
        "norad_id": 54026,
        "name": "GALAXY 33 (G-33)",
        "group": "intelsat",
        "lat": 0.028378438100429493,
        "lon": 79.1238213167881,
        "alt_km": 35795.60496534954,
        "timestamp": "2025-12-08T08:59:00.440107+00:00",
        "meta_object_name": "GALAXY 33 (G-33)",
        "meta_object_id": "2022-128A",
        "meta_epoch": "2025-12-07T21:33:35.476992",
        "meta_mean_motion": 1.00271369,
        "meta_eccentricity": 0.00022683,
        "meta_inclination": 0.0182,
        "meta_ra_of_asc_node": 298.512,
        "meta_arg_of_pericenter": 310.2549,
        "meta_mean_anomaly": 18.5442,
        "meta_ephemeris_type": 0,
        "meta_classification_type": "U",
        "meta_norad_cat_id": 54026,
        "meta_element_set_no": 999,
        "meta_rev_at_epoch": 1182,
        "meta_bstar": 0,
        "meta_mean_motion_dot": 8.2e-07,
        "meta_mean_motion_ddot": 0,
        "tle_line1": "1 54026U 22128A   25341.89832728  .00000082  00000+0  00000+0 0  9992",
        "tle_line2": "2 54026   0.0182 298.5120 0002268 310.2549  18.5442  1.00271369 11824"
      },
      "geometry": {
        "type": "Point",
        "coordinates": [
          79.1238213167881,
          0.028378438100429493
        ]
      }
    },
    {
      "type": "Feature",
      "properties": {
        "norad_id": 54027,
        "name": "GALAXY 34 (G-34)",
        "group": "intelsat",
        "lat": 0.04109199806941006,
        "lon": 83.18492782695375,
        "alt_km": 35791.8649152047,
        "timestamp": "2025-12-08T08:59:00.440118+00:00",
        "meta_object_name": "GALAXY 34 (G-34)",
        "meta_object_id": "2022-128B",
        "meta_epoch": "2025-12-07T16:26:43.821024",
        "meta_mean_motion": 1.00269803,
        "meta_eccentricity": 0.00013497,
        "meta_inclination": 0.0284,
        "meta_ra_of_asc_node": 314.0489,
        "meta_arg_of_pericenter": 286.7682,
        "meta_mean_anomaly": 313.6351,
        "meta_ephemeris_type": 0,
        "meta_classification_type": "U",
        "meta_norad_cat_id": 54027,
        "meta_element_set_no": 999,
        "meta_rev_at_epoch": 1199,
        "meta_bstar": 0,
        "meta_mean_motion_dot": 0,
        "meta_mean_motion_ddot": 0,
        "tle_line1": "1 54027U 22128B   25341.68522941  .00000000  00000+0  00000+0 0  9993",
        "tle_line2": "2 54027   0.0284 314.0489 0001349 286.7682 313.6351  1.00269803 11990"
      },
      "geometry": {
        "type": "Point",
        "coordinates": [
          83.18492782695375,
          0.04109199806941006
        ]
      }
    },
    {
      "type": "Feature",
      "properties": {
        "norad_id": 54243,
        "name": "GALAXY 31 (G-31)",
        "group": "intelsat",
        "lat": 0.017789427762354305,
        "lon": 91.1297883515728,
        "alt_km": 35794.45609579655,
        "timestamp": "2025-12-08T08:59:00.440130+00:00",
        "meta_object_name": "GALAXY 31 (G-31)",
        "meta_object_id": "2022-153A",
        "meta_epoch": "2025-12-07T16:28:58.605888",
        "meta_mean_motion": 1.00271232,
        "meta_eccentricity": 0.00019527,
        "meta_inclination": 0.0235,
        "meta_ra_of_asc_node": 84.5789,
        "meta_arg_of_pericenter": 183.9278,
        "meta_mean_anomaly": 294.4451,
        "meta_ephemeris_type": 0,
        "meta_classification_type": "U",
        "meta_norad_cat_id": 54243,
        "meta_element_set_no": 999,
        "meta_rev_at_epoch": 521,
        "meta_bstar": 0,
        "meta_mean_motion_dot": 1.7e-07,
        "meta_mean_motion_ddot": 0,
        "tle_line1": "1 54243U 22153A   25341.68678942  .00000017  00000+0  00000+0 0  9992",
        "tle_line2": "2 54243   0.0235  84.5789 0001952 183.9278 294.4451  1.00271232  5211"
      },
      "geometry": {
        "type": "Point",
        "coordinates": [
          91.1297883515728,
          0.017789427762354305
        ]
      }
    },
    {
      "type": "Feature",
      "properties": {
        "norad_id": 54244,
        "name": "GALAXY 32 (G-32)",
        "group": "intelsat",
        "lat": 0.018326649258920094,
        "lon": 121.13086631713406,
        "alt_km": 35797.75158089598,
        "timestamp": "2025-12-08T08:59:00.440142+00:00",
        "meta_object_name": "GALAXY 32 (G-32)",
        "meta_object_id": "2022-153B",
        "meta_epoch": "2025-12-07T21:45:41.816736",
        "meta_mean_motion": 1.0027061,
        "meta_eccentricity": 0.00026981,
        "meta_inclination": 0.0101,
        "meta_ra_of_asc_node": 332.0017,
        "meta_arg_of_pericenter": 334.9102,
        "meta_mean_anomaly": 5.4348,
        "meta_ephemeris_type": 0,
        "meta_classification_type": "U",
        "meta_norad_cat_id": 54244,
        "meta_element_set_no": 999,
        "meta_rev_at_epoch": 1122,
        "meta_bstar": 0,
        "meta_mean_motion_dot": -1.71e-06,
        "meta_mean_motion_ddot": 0,
        "tle_line1": "1 54244U 22153B   25341.90673399 -.00000171  00000+0  00000+0 0  9991",
        "tle_line2": "2 54244   0.0101 332.0017 0002698 334.9102   5.4348  1.00270610 11223"
      },
      "geometry": {
        "type": "Point",
        "coordinates": [
          121.13086631713406,
          0.018326649258920094
        ]
      }
    }
  ]
}